0 IRIDIUM 33 DEB
1 38024U 97051YL  13281.43104061  .00006184  00000-0  30549-2 0  1830
2 38024 086.4824 178.7836 0135723 193.5212 166.2323 14.12578992213934
0 IRIDIUM 33 DEB
1 38024U 97051YL  13283.98115617  .00008326  00000-0  41092-2 0  1847
2 38024 086.4851 177.7773 0136150 185.2108 174.7669 14.12618980214299
0 IRIDIUM 33 DEB
1 38024U 97051YL  13287.45205112  .00007442  00000-0  36675-2 0  1853
2 38024 086.4859 176.4116 0136563 173.7709 186.5216 14.12660418214787
0 IRIDIUM 33 DEB
1 38024U 97051YL  13290.42700480  .00009612  00000-0  47318-2 0  1860
2 38024 086.4860 175.2399 0136872 164.0905 196.4646 14.12707629215204
0 IRIDIUM 33 DEB
1 38024U 97051YL  13291.41863503  .00008716  00000-0  42878-2 0  1877
2 38024 086.4848 174.8494 0137168 160.8530 199.7884 14.12721642215344
0 IRIDIUM 33 DEB
1 38024U 97051YL  13293.40186344  .00008794  00000-0  43213-2 0  1880
2 38024 086.4844 174.0673 0137593 154.5979 206.2055 14.12749183215625
